LEMUR-2-AMANDA-SVANTE   
1 48269U 21034B   26068.77637527  .00030872  00000+0  11134-2 0  9996
2 48269  97.5829 144.8625 0002703 205.4721 154.6385 15.28469003265849
STARLINK-32134          
1 60300U 24132Y   26068.38256065  .00000385  00000+0  25126-4 0  9993
2 60300  53.1611  53.8358 0001242  81.5362 278.5780 15.30194938 91510
